[
    {
        "Altitude(m)": 704709.3683971596,
        "Argument of Periapsis(deg)": 0.010251109067964361,
        "Eccentricity": 0.0,
        "Inclination(deg)": 45.0,
        "Latitude(deg)": -7.428327000686556,
        "Longitude(deg)": -158.24237438846492,
        "Mean Anomaly(deg)": 190.3798949827327,
        "RAAN(deg)": 114.99032325268762,
        "Satellite Name": "Constellation 1 517",
        "Satellite Number": 517,
        "Semi-Major Axis(m)": 7083131.272910544,
        "Time(s)": 171
    },
    {
        "Altitude(m)": 704718.3678470098,
        "Argument of Periapsis(deg)": 0.010311057074209765,
        "Eccentricity": 0.0,
        "Inclination(deg)": 45.0,
        "Latitude(deg)": -7.471154941456735,
        "Longitude(deg)": -158.20291182667123,
        "Mean Anomaly(deg)": 190.44059612298267,
        "RAAN(deg)": 114.99026666352204,
        "Satellite Name": "Constellation 1 517",
        "Satellite Number": 517,
        "Semi-Major Axis(m)": 7083131.272910544,
        "Time(s)": 172
    },
    {
        "Altitude(m)": 704727.3854424994,
        "Argument of Periapsis(deg)": 0.010371005080455171,
        "Eccentricity": 0.0,
        "Inclination(deg)": 45.0,
        "Latitude(deg)": -7.513978414759543,
        "Longitude(deg)": -158.16344087050493,
        "Mean Anomaly(deg)": 190.50129726323257,
        "RAAN(deg)": 114.99021007435647,
        "Satellite Name": "Constellation 1 517",
        "Satellite Number": 517,
        "Semi-Major Axis(m)": 7083131.272910544,
        "Time(s)": 173
    },
    {
        "Altitude(m)": 704736.4211614574,
        "Argument of Periapsis(deg)": 0.010430953086700577,
        "Eccentricity": 0.0,
        "Inclination(deg)": 45.0,
        "Latitude(deg)": -7.5567973943288465,
        "Longitude(deg)": -158.12396147013166,
        "Mean Anomaly(deg)": 190.56199840348236,
        "RAAN(deg)": 114.9901534851909,
        "Satellite Name": "Constellation 1 517",
        "Satellite Number": 517,
        "Semi-Major Axis(m)": 7083131.272910544,
        "Time(s)": 174
    },
    {
        "Altitude(m)": 704745.4749816181,
        "Argument of Periapsis(deg)": 0.010490901092945983,
        "Eccentricity": 0.0,
        "Inclination(deg)": 45.0,
        "Latitude(deg)": -7.599611853882758,
        "Longitude(deg)": -158.08447357569926,
        "Mean Anomaly(deg)": 190.62269954373238,
        "RAAN(deg)": 114.99009689602534,
        "Satellite Name": "Constellation 1 517",
        "Satellite Number": 517,
        "Semi-Major Axis(m)": 7083131.272910544,
        "Time(s)": 175
    },
    {
        "Altitude(m)": 704754.5468806339,
        "Argument of Periapsis(deg)": 0.010550849099191389,
        "Eccentricity": 0.0,
        "Inclination(deg)": 45.0,
        "Latitude(deg)": -7.642421767123247,
        "Longitude(deg)": -158.04497713733804,
        "Mean Anomaly(deg)": 190.68340068398223,
        "RAAN(deg)": 114.99004030685978,
        "Satellite Name": "Constellation 1 517",
        "Satellite Number": 517,
        "Semi-Major Axis(m)": 7083131.272910544,
        "Time(s)": 176
    },
    {
        "Altitude(m)": 704763.6368360727,
        "Argument of Periapsis(deg)": 0.010610797105436795,
        "Eccentricity": 0.0,
        "Inclination(deg)": 45.0,
        "Latitude(deg)": -7.685227107736486,
        "Longitude(deg)": -158.00547210516015,
        "Mean Anomaly(deg)": 190.74410182423216,
        "RAAN(deg)": 114.9899837176942,
        "Satellite Name": "Constellation 1 517",
        "Satellite Number": 517,
        "Semi-Major Axis(m)": 7083131.272910544,
        "Time(s)": 177
    },
    {
        "Altitude(m)": 704772.7448254187,
        "Argument of Periapsis(deg)": 0.0106707451116822,
        "Eccentricity": 0.0,
        "Inclination(deg)": 45.0,
        "Latitude(deg)": -7.7280278493920775,
        "Longitude(deg)": -157.96595859735703,
        "Mean Anomaly(deg)": 190.804802964482,
        "RAAN(deg)": 114.98992712852863,
        "Satellite Name": "Constellation 1 517",
        "Satellite Number": 517,
        "Semi-Major Axis(m)": 7083131.272910544,
        "Time(s)": 178
    },
    {
        "Altitude(m)": 704781.8708260666,
        "Argument of Periapsis(deg)": 0.010730693117927606,
        "Eccentricity": 0.0,
        "Inclination(deg)": 45.0,
        "Latitude(deg)": -7.7708239657444125,
        "Longitude(deg)": -157.92643622781085,
        "Mean Anomaly(deg)": 190.86550410473194,
        "RAAN(deg)": 114.98987053936305,
        "Satellite Name": "Constellation 1 517",
        "Satellite Number": 517,
        "Semi-Major Axis(m)": 7083131.272910544,
        "Time(s)": 179
    },
    {
        "Altitude(m)": 704791.0148153275,
        "Argument of Periapsis(deg)": 0.01079064112417301,
        "Eccentricity": 0.0,
        "Inclination(deg)": 45.0,
        "Latitude(deg)": -7.813615430430547,
        "Longitude(deg)": -157.88690511467692,
        "Mean Anomaly(deg)": 190.92620524498184,
        "RAAN(deg)": 114.98981395019749,
        "Satellite Name": "Constellation 1 517",
        "Satellite Number": 517,
        "Semi-Major Axis(m)": 7083131.272910544,
        "Time(s)": 180
    },
    {
        "Altitude(m)": 704800.1767704248,
        "Argument of Periapsis(deg)": 0.010850589130418416,
        "Eccentricity": 0.0,
        "Inclination(deg)": 45.0,
        "Latitude(deg)": -7.856402217071661,
        "Longitude(deg)": -157.8473652079949,
        "Mean Anomaly(deg)": 190.9869063852317,
        "RAAN(deg)": 114.9897573610319,
        "Satellite Name": "Constellation 1 517",
        "Satellite Number": 517,
        "Semi-Major Axis(m)": 7083131.272910544,
        "Time(s)": 181
    },
    {
        "Altitude(m)": 704809.3566685079,
        "Argument of Periapsis(deg)": 0.01091053713666382,
        "Eccentricity": 0.0,
        "Inclination(deg)": 45.0,
        "Latitude(deg)": -7.899184299272279,
        "Longitude(deg)": -157.8078164577864,
        "Mean Anomaly(deg)": 191.04760752548168,
        "RAAN(deg)": 114.98970077186635,
        "Satellite Name": "Constellation 1 517",
        "Satellite Number": 517,
        "Semi-Major Axis(m)": 7083131.272910544,
        "Time(s)": 182
    },
    {
        "Altitude(m)": 704818.5544866285,
        "Argument of Periapsis(deg)": 0.010970485142909228,
        "Eccentricity": 0.0,
        "Inclination(deg)": 45.0,
        "Latitude(deg)": -7.941961650620252,
        "Longitude(deg)": -157.7682588140546,
        "Mean Anomaly(deg)": 191.10830866573153,
        "RAAN(deg)": 114.98964418270076,
        "Satellite Name": "Constellation 1 517",
        "Satellite Number": 517,
        "Semi-Major Axis(m)": 7083131.272910544,
        "Time(s)": 183
    },
    {
        "Altitude(m)": 704827.7702017584,
        "Argument of Periapsis(deg)": 0.011030433149154634,
        "Eccentricity": 0.0,
        "Inclination(deg)": 45.0,
        "Latitude(deg)": -7.984734244687017,
        "Longitude(deg)": -157.72869222678406,
        "Mean Anomaly(deg)": 191.1690098059814,
        "RAAN(deg)": 114.9895875935352,
        "Satellite Name": "Constellation 1 517",
        "Satellite Number": 517,
        "Semi-Major Axis(m)": 7083131.272910544,
        "Time(s)": 184
    },
    {
        "Altitude(m)": 704837.0037907807,
        "Argument of Periapsis(deg)": 0.01109038115540004,
        "Eccentricity": 0.0,
        "Inclination(deg)": 45.0,
        "Latitude(deg)": -8.027502055026673,
        "Longitude(deg)": -157.68911681403785,
        "Mean Anomaly(deg)": 191.22971094623134,
        "RAAN(deg)": 114.98953100436965,
        "Satellite Name": "Constellation 1 517",
        "Satellite Number": 517,
        "Semi-Major Axis(m)": 7083131.272910544,
        "Time(s)": 185
    },
    {
        "Altitude(m)": 704846.255230511,
        "Argument of Periapsis(deg)": 0.011150329161645444,
        "Eccentricity": 0.0,
        "Inclination(deg)": 45.0,
        "Latitude(deg)": -8.070265055177344,
        "Longitude(deg)": -157.64953218956916,
        "Mean Anomaly(deg)": 191.29041208648124,
        "RAAN(deg)": 114.98947441520406,
        "Satellite Name": "Constellation 1 517",
        "Satellite Number": 517,
        "Semi-Major Axis(m)": 7083131.272910544,
        "Time(s)": 186
    },
    {
        "Altitude(m)": 704855.524497653,
        "Argument of Periapsis(deg)": 0.01121027716789085,
        "Eccentricity": 0.0,
        "Inclination(deg)": 45.0,
        "Latitude(deg)": -8.113023218659425,
        "Longitude(deg)": -157.60993847140347,
        "Mean Anomaly(deg)": 191.3511132267311,
        "RAAN(deg)": 114.9894178260385,
        "Satellite Name": "Constellation 1 517",
        "Satellite Number": 517,
        "Semi-Major Axis(m)": 7083131.272910544,
        "Time(s)": 187
    },
    {
        "Altitude(m)": 704864.8115688442,
        "Argument of Periapsis(deg)": 0.011270225174136258,
        "Eccentricity": 0.0,
        "Inclination(deg)": 45.0,
        "Latitude(deg)": -8.155776518976456,
        "Longitude(deg)": -157.57033560945038,
        "Mean Anomaly(deg)": 191.41181436698108,
        "RAAN(deg)": 114.98936123687291,
        "Satellite Name": "Constellation 1 517",
        "Satellite Number": 517,
        "Semi-Major Axis(m)": 7083131.272910544,
        "Time(s)": 188
    },
    {
        "Altitude(m)": 704874.1164206362,
        "Argument of Periapsis(deg)": 0.011330173180381662,
        "Eccentricity": 0.0,
        "Inclination(deg)": 45.0,
        "Latitude(deg)": -8.198524929614718,
        "Longitude(deg)": -157.53072355360067,
        "Mean Anomaly(deg)": 191.47251550723087,
        "RAAN(deg)": 114.98930464770736,
        "Satellite Name": "Constellation 1 517",
        "Satellite Number": 517,
        "Semi-Major Axis(m)": 7083131.272910544,
        "Time(s)": 189
    }
]